[{"OBJECT_NAME":"COSMOS 2251 DEB","OBJECT_ID":"1993-036BKG","EPOCH":"2026-03-05T20:13:57.507744","MEAN_MOTION":15.00251349,"ECCENTRICITY":0.00288173,"INCLINATION":74.0154,"RA_OF_ASC_NODE":212.6976,"ARG_OF_PERICENTER":269.6088,"MEAN_ANOMALY":90.1796,"EPHEMERIS_TYPE":0,"CLASSIFICATION_TYPE":"U","NORAD_CAT_ID":37316,"ELEMENT_SET_NO":999,"REV_AT_EPOCH":87387,"BSTAR":0.0034642007,"MEAN_MOTION_DOT":0.00043988,"MEAN_MOTION_DDOT":0},{"OBJECT_NAME":"COSMOS 2251 DEB","OBJECT_ID":"1993-036BKL","EPOCH":"2026-03-04T07:34:50.837088","MEAN_MOTION":14.80086181,"ECCENTRICITY":0.00428418,"INCLINATION":74.0453,"RA_OF_ASC_NODE":57.7112,"ARG_OF_PERICENTER":126.997,"MEAN_ANOMALY":233.514,"EPHEMERIS_TYPE":0,"CLASSIFICATION_TYPE":"U","NORAD_CAT_ID":37320,"ELEMENT_SET_NO":999,"REV_AT_EPOCH":67353,"BSTAR":0.0012918993,"MEAN_MOTION_DOT":9.928e-5,"MEAN_MOTION_DDOT":0},{"OBJECT_NAME":"COSMOS 2251 DEB","OBJECT_ID":"1993-036BKS","EPOCH":"2026-03-06T15:03:06.935904","MEAN_MOTION":14.62092164,"ECCENTRICITY":0.0058169,"INCLINATION":74.0209,"RA_OF_ASC_NODE":174.0423,"ARG_OF_PERICENTER":279.9785,"MEAN_ANOMALY":79.482,"EPHEMERIS_TYPE":0,"CLASSIFICATION_TYPE":"U","NORAD_CAT_ID":37326,"ELEMENT_SET_NO":999,"REV_AT_EPOCH":86709,"BSTAR":0.00073725554,"MEAN_MOTION_DOT":3.764e-5,"MEAN_MOTION_DDOT":0},{"OBJECT_NAME":"COSMOS 2251 DEB","OBJECT_ID":"1993-036BKW","EPOCH":"2026-03-02T21:56:09.660480","MEAN_MOTION":14.59813983,"ECCENTRICITY":0.00587577,"INCLINATION":74.0179,"RA_OF_ASC_NODE":142.0073,"ARG_OF_PERICENTER":327.9667,"MEAN_ANOMALY":31.7931,"EPHEMERIS_TYPE":0,"CLASSIFICATION_TYPE":"U","NORAD_CAT_ID":37330,"ELEMENT_SET_NO":999,"REV_AT_EPOCH":87538,"BSTAR":0.00030213758,"MEAN_MOTION_DOT":1.448e-5,"MEAN_MOTION_DDOT":0},{"OBJECT_NAME":"COSMOS 2251 DEB","OBJECT_ID":"1993-036BKX","EPOCH":"2026-03-03T06:46:30.290592","MEAN_MOTION":14.35341419,"ECCENTRICITY":0.0057135,"INCLINATION":74.0709,"RA_OF_ASC_NODE":280.5438,"ARG_OF_PERICENTER":274.4177,"MEAN_ANOMALY":85.0449,"EPHEMERIS_TYPE":0,"CLASSIFICATION_TYPE":"U","NORAD_CAT_ID":37331,"ELEMENT_SET_NO":999,"REV_AT_EPOCH":85915,"BSTAR":0.00053581914,"MEAN_MOTION_DOT":1.539e-5,"MEAN_MOTION_DDOT":0},{"OBJECT_NAME":"COSMOS 2251 DEB","OBJECT_ID":"1993-036BLC","EPOCH":"2026-03-01T17:53:12.380352","MEAN_MOTION":14.3279795,"ECCENTRICITY":0.00308324,"INCLINATION":74.0422,"RA_OF_ASC_NODE":186.9768,"ARG_OF_PERICENTER":248.0385,"MEAN_ANOMALY":111.7488,"EPHEMERIS_TYPE":0,"CLASSIFICATION_TYPE":"U","NORAD_CAT_ID":37336,"ELEMENT_SET_NO":999,"REV_AT_EPOCH":66251,"BSTAR":8.7721171e-5,"MEAN_MOTION_DOT":2.14e-6,"MEAN_MOTION_DDOT":0},{"OBJECT_NAME":"COSMOS 2251 DEB","OBJECT_ID":"1993-036BLG","EPOCH":"2026-03-03T13:27:12.055680","MEAN_MOTION":14.37030951,"ECCENTRICITY":0.0018867,"INCLINATION":74.0246,"RA_OF_ASC_NODE":128.4565,"ARG_OF_PERICENTER":212.4326,"MEAN_ANOMALY":147.5669,"EPHEMERIS_TYPE":0,"CLASSIFICATION_TYPE":"U","NORAD_CAT_ID":37340,"ELEMENT_SET_NO":999,"REV_AT_EPOCH":85228,"BSTAR":0.0002033,"MEAN_MOTION_DOT":5.78e-6,"MEAN_MOTION_DDOT":0},{"OBJECT_NAME":"COSMOS 2251 DEB","OBJECT_ID":"1993-036BLL","EPOCH":"2026-03-06T11:48:33.337728","MEAN_MOTION":14.43723605,"ECCENTRICITY":0.00928641,"INCLINATION":73.9769,"RA_OF_ASC_NODE":347.0542,"ARG_OF_PERICENTER":175.6502,"MEAN_ANOMALY":184.5485,"EPHEMERIS_TYPE":0,"CLASSIFICATION_TYPE":"U","NORAD_CAT_ID":37483,"ELEMENT_SET_NO":999,"REV_AT_EPOCH":66488,"BSTAR":0.00024315565,"MEAN_MOTION_DOT":8.42e-6,"MEAN_MOTION_DDOT":0},{"OBJECT_NAME":"COSMOS 2251 DEB","OBJECT_ID":"1993-036BLM","EPOCH":"2026-02-28T09:00:14.280192","MEAN_MOTION":14.42273965,"ECCENTRICITY":0.00352596,"INCLINATION":73.8234,"RA_OF_ASC_NODE":62.6448,"ARG_OF_PERICENTER":82.7042,"MEAN_ANOMALY":344.4944,"EPHEMERIS_TYPE":0,"CLASSIFICATION_TYPE":"U","NORAD_CAT_ID":37484,"ELEMENT_SET_NO":999,"REV_AT_EPOCH":66498,"BSTAR":0.00071600149,"MEAN_MOTION_DOT":2.353e-5,"MEAN_MOTION_DDOT":0},{"OBJECT_NAME":"COSMOS 2251 DEB","OBJECT_ID":"1993-036BLP","EPOCH":"2026-03-04T10:16:43.253760","MEAN_MOTION":14.14330827,"ECCENTRICITY":0.02277584,"INCLINATION":73.6911,"RA_OF_ASC_NODE":326.7587,"ARG_OF_PERICENTER":182.8587,"MEAN_ANOMALY":297.4551,"EPHEMERIS_TYPE":0,"CLASSIFICATION_TYPE":"U","NORAD_CAT_ID":37486,"ELEMENT_SET_NO":999,"REV_AT_EPOCH":64524,"BSTAR":0.002306558,"MEAN_MOTION_DOT":5.634e-5,"MEAN_MOTION_DDOT":0},{"OBJECT_NAME":"COSMOS 2251 DEB","OBJECT_ID":"1993-036BLQ","EPOCH":"2026-03-04T06:13:50.570112","MEAN_MOTION":14.86349788,"ECCENTRICITY":0.003135,"INCLINATION":73.8994,"RA_OF_ASC_NODE":29.2661,"ARG_OF_PERICENTER":214.2069,"MEAN_ANOMALY":145.7092,"EPHEMERIS_TYPE":0,"CLASSIFICATION_TYPE":"U","NORAD_CAT_ID":37487,"ELEMENT_SET_NO":999,"REV_AT_EPOCH":82454,"BSTAR":0.0066748,"MEAN_MOTION_DOT":0.00059847,"MEAN_MOTION_DDOT":0},{"OBJECT_NAME":"COSMOS 2251 DEB","OBJECT_ID":"1993-036BLU","EPOCH":"2026-03-03T21:07:15.587328","MEAN_MOTION":13.75579531,"ECCENTRICITY":0.0311325,"INCLINATION":73.9058,"RA_OF_ASC_NODE":138.0451,"ARG_OF_PERICENTER":116.0197,"MEAN_ANOMALY":247.3335,"EPHEMERIS_TYPE":0,"CLASSIFICATION_TYPE":"U","NORAD_CAT_ID":37491,"ELEMENT_SET_NO":999,"REV_AT_EPOCH":56862,"BSTAR":0.00096991,"MEAN_MOTION_DOT":1.311e-5,"MEAN_MOTION_DDOT":0},{"OBJECT_NAME":"COSMOS 2251 DEB","OBJECT_ID":"1993-036BLZ","EPOCH":"2026-03-03T22:28:19.057152","MEAN_MOTION":14.97767409,"ECCENTRICITY":0.0058139,"INCLINATION":73.9486,"RA_OF_ASC_NODE":157.062,"ARG_OF_PERICENTER":151.7198,"MEAN_ANOMALY":208.7166,"EPHEMERIS_TYPE":0,"CLASSIFICATION_TYPE":"U","NORAD_CAT_ID":37496,"ELEMENT_SET_NO":999,"REV_AT_EPOCH":67231,"BSTAR":0.0032977,"MEAN_MOTION_DOT":0.00040267,"MEAN_MOTION_DDOT":0},{"OBJECT_NAME":"COSMOS 2251 DEB","OBJECT_ID":"1993-036BMB","EPOCH":"2026-03-06T13:48:39.613536","MEAN_MOTION":14.55534566,"ECCENTRICITY":0.00086666,"INCLINATION":74.04,"RA_OF_ASC_NODE":25.1523,"ARG_OF_PERICENTER":61.0038,"MEAN_ANOMALY":299.1993,"EPHEMERIS_TYPE":0,"CLASSIFICATION_TYPE":"U","NORAD_CAT_ID":37498,"ELEMENT_SET_NO":999,"REV_AT_EPOCH":66574,"BSTAR":0.0011676211,"MEAN_MOTION_DOT":5.064e-5,"MEAN_MOTION_DDOT":0},{"OBJECT_NAME":"COSMOS 2251 DEB","OBJECT_ID":"1993-036BMC","EPOCH":"2026-03-03T16:53:38.458176","MEAN_MOTION":14.34430165,"ECCENTRICITY":0.00288419,"INCLINATION":74.0384,"RA_OF_ASC_NODE":173.9605,"ARG_OF_PERICENTER":234.3912,"MEAN_ANOMALY":125.4553,"EPHEMERIS_TYPE":0,"CLASSIFICATION_TYPE":"U","NORAD_CAT_ID":37499,"ELEMENT_SET_NO":999,"REV_AT_EPOCH":86310,"BSTAR":0.00020978304,"MEAN_MOTION_DOT":5.67e-6,"MEAN_MOTION_DDOT":0},{"OBJECT_NAME":"COSMOS 2251 DEB","OBJECT_ID":"1993-036BNH","EPOCH":"2026-03-02T10:05:22.457184","MEAN_MOTION":14.50835322,"ECCENTRICITY":0.00189741,"INCLINATION":74.0387,"RA_OF_ASC_NODE":332.356,"ARG_OF_PERICENTER":102.0743,"MEAN_ANOMALY":258.2545,"EPHEMERIS_TYPE":0,"CLASSIFICATION_TYPE":"U","NORAD_CAT_ID":37528,"ELEMENT_SET_NO":999,"REV_AT_EPOCH":87086,"BSTAR":0.0004585723,"MEAN_MOTION_DOT":1.784e-5,"MEAN_MOTION_DDOT":0},{"OBJECT_NAME":"COSMOS 2251 DEB","OBJECT_ID":"1993-036BNK","EPOCH":"2026-03-05T00:42:12.154176","MEAN_MOTION":14.34627126,"ECCENTRICITY":0.0027825,"INCLINATION":74.0304,"RA_OF_ASC_NODE":182.9361,"ARG_OF_PERICENTER":229.7512,"MEAN_ANOMALY":249.0609,"EPHEMERIS_TYPE":0,"CLASSIFICATION_TYPE":"U","NORAD_CAT_ID":37530,"ELEMENT_SET_NO":999,"REV_AT_EPOCH":86412,"BSTAR":0.0003006,"MEAN_MOTION_DOT":8.27e-6,"MEAN_MOTION_DDOT":0},{"OBJECT_NAME":"COSMOS 2251 DEB","OBJECT_ID":"1993-036BNM","EPOCH":"2026-03-02T07:27:48.513888","MEAN_MOTION":14.42560018,"ECCENTRICITY":0.00146993,"INCLINATION":74.0488,"RA_OF_ASC_NODE":68.2344,"ARG_OF_PERICENTER":159.9877,"MEAN_ANOMALY":212.1898,"EPHEMERIS_TYPE":0,"CLASSIFICATION_TYPE":"U","NORAD_CAT_ID":37532,"ELEMENT_SET_NO":999,"REV_AT_EPOCH":86063,"BSTAR":0.00025374803,"MEAN_MOTION_DOT":8.17e-6,"MEAN_MOTION_DDOT":0},{"OBJECT_NAME":"COSMOS 2251 DEB","OBJECT_ID":"1993-036BNN","EPOCH":"2026-02-23T06:29:28.874112","MEAN_MOTION":14.12684231,"ECCENTRICITY":0.0153847,"INCLINATION":74.068,"RA_OF_ASC_NODE":63.8898,"ARG_OF_PERICENTER":103.965,"MEAN_ANOMALY":257.8652,"EPHEMERIS_TYPE":0,"CLASSIFICATION_TYPE":"U","NORAD_CAT_ID":37533,"ELEMENT_SET_NO":999,"REV_AT_EPOCH":63945,"BSTAR":0.0011315,"MEAN_MOTION_DOT":2.324e-5,"MEAN_MOTION_DDOT":0},{"OBJECT_NAME":"COSMOS 2251 DEB","OBJECT_ID":"1993-036BNQ","EPOCH":"2026-03-05T00:18:08.316000","MEAN_MOTION":14.59080776,"ECCENTRICITY":0.00267363,"INCLINATION":74.021,"RA_OF_ASC_NODE":276.6897,"ARG_OF_PERICENTER":31.3975,"MEAN_ANOMALY":118.9826,"EPHEMERIS_TYPE":0,"CLASSIFICATION_TYPE":"U","NORAD_CAT_ID":37535,"ELEMENT_SET_NO":999,"REV_AT_EPOCH":86524,"BSTAR":0.00069360951,"MEAN_MOTION_DOT":3.25e-5,"MEAN_MOTION_DDOT":0},{"OBJECT_NAME":"COSMOS 2251 DEB","OBJECT_ID":"1993-036BNS","EPOCH":"2026-03-06T10:31:54.706368","MEAN_MOTION":14.37615343,"ECCENTRICITY":0.00525954,"INCLINATION":74.0106,"RA_OF_ASC_NODE":110.8563,"ARG_OF_PERICENTER":233.257,"MEAN_ANOMALY":126.3749,"EPHEMERIS_TYPE":0,"CLASSIFICATION_TYPE":"U","NORAD_CAT_ID":37537,"ELEMENT_SET_NO":999,"REV_AT_EPOCH":86236,"BSTAR":0.00022335837,"MEAN_MOTION_DOT":6.54e-6,"MEAN_MOTION_DDOT":0},{"OBJECT_NAME":"COSMOS 2251 DEB","OBJECT_ID":"1993-036BPB","EPOCH":"2026-03-04T15:28:25.542048","MEAN_MOTION":14.83821694,"ECCENTRICITY":0.000624,"INCLINATION":74.0193,"RA_OF_ASC_NODE":295.958,"ARG_OF_PERICENTER":276.0837,"MEAN_ANOMALY":83.963,"EPHEMERIS_TYPE":0,"CLASSIFICATION_TYPE":"U","NORAD_CAT_ID":37546,"ELEMENT_SET_NO":999,"REV_AT_EPOCH":67101,"BSTAR":0.002317,"MEAN_MOTION_DOT":0.00019237,"MEAN_MOTION_DDOT":0},{"OBJECT_NAME":"COSMOS 2251 DEB","OBJECT_ID":"1993-036BPJ","EPOCH":"2026-03-05T23:20:24.495072","MEAN_MOTION":14.58708879,"ECCENTRICITY":0.00570206,"INCLINATION":74.0075,"RA_OF_ASC_NODE":258.2541,"ARG_OF_PERICENTER":18.3495,"MEAN_ANOMALY":131.6589,"EPHEMERIS_TYPE":0,"CLASSIFICATION_TYPE":"U","NORAD_CAT_ID":37959,"ELEMENT_SET_NO":999,"REV_AT_EPOCH":81340,"BSTAR":0.00058644091,"MEAN_MOTION_DOT":2.769e-5,"MEAN_MOTION_DDOT":0}]
